*******************************************************************************
Ephemeris / WWW_USER Mon Mar 24 07:46:41 2025 Pasadena, USA      / Horizons    
*******************************************************************************
Target body name: (2018 TB)                       {source: JPL#26}
Center body name: Earth (399)                     {source: DE441}
Center-site name: Mauna Kea
*******************************************************************************
Start time      : A.D. 2019-Jan-22 04:17:00.0000 UT      
Stop  time      : A.D. 2019-Jan-22 16:49:00.0000 UT      
Step-size       : 1 minutes
*******************************************************************************
Target pole/equ : undefined
Target radii    : undefined                                                    
Center geodetic : 204.5278, 19.8260847, 4.21024   {E-lon(deg),Lat(deg),Alt(km)}
Center cylindric: 204.5278, 6006.35451, 2151.0229 {E-lon(deg),Dxy(km),Dz(km)}
Center pole/equ : ITRF93                          {East-longitude positive}
Center radii    : 6378.137, 6378.137, 6356.752 km {Equator_a, b, pole_c}       
Target primary  : Sun
Vis. interferer : MOON (R_eq= 1737.400) km        {source: DE441}
Rel. light bend : Sun                             {source: DE441}
Rel. lght bnd GM: 1.3271E+11 km^3/s^2                                          
Small-body perts: Yes                             {source: SB441-N16}
Atmos refraction: NO (AIRLESS)
RA format       : HMS
Time format     : CAL 
Calendar mode   : Mixed Julian/Gregorian
RTS-only print  : NO       
EOP file        : eop.250321.p250617                                           
EOP coverage    : DATA-BASED 1962-JAN-20 TO 2025-MAR-21. PREDICTS-> 2025-JUN-16
Units conversion: 1 au= 149597870.700 km, c= 299792.458 km/s, 1 day= 86400.0 s 
Table cut-offs 1: Elevation (-90.0deg=NO ),Airmass (>38.000=NO), Daylight (YES)
Table cut-offs 2: Solar elongation (  0.0,180.0=NO ),Local Hour Angle( 0.0=NO )
Table cut-offs 3: RA/DEC angular rate (     0.0=NO )                           
*******************************************************************************
Initial IAU76/J2000 heliocentric ecliptic osculating elements (au, days, deg.):
  EPOCH=  2458410.5 ! 2018-Oct-19.00 (TDB)         Residual RMS= .12604        
   EC= .5817616216321111   QR= 1.001672821897195   TP= 2458383.1822299529      
   OM= 14.42282174156359   W=  341.1556337077549   IN= 3.61300419916586        
  Equivalent ICRF heliocentric cartesian coordinates (au, au/d):
   X= 9.381709462996228E-01  Y= 4.515017153732180E-01  Z= 2.129237315158303E-01
  VX=-5.799214133182419E-03 VY= 1.778204046057418E-02 VZ= 9.138573561666745E-03
Asteroid physical parameters (km, seconds, rotational period in hours):        
   GM= n.a.                RAD= n.a.               ROTPER= n.a.                
   H= 24.89                G= .150                 B-V= n.a.                   
                           ALBEDO= n.a.            STYP= n.a.                  
*******************************************************************************
 Date__(UT)__HR:MN     R.A._________(ICRF)_________DEC
******************************************************
$$SOE
 2019-Jan-22 08:23  m  04 15 52.581757 +27 43 16.70215
 2019-Jan-22 08:24  m  04 15 52.629935 +27 43 16.65330
 2019-Jan-22 08:25  m  04 15 52.678119 +27 43 16.60437
 2019-Jan-22 08:26  m  04 15 52.726310 +27 43 16.55539
 2019-Jan-22 08:27  m  04 15 52.774506 +27 43 16.50634
 2019-Jan-22 08:28  m  04 15 52.822709 +27 43 16.45723
 2019-Jan-22 08:29  m  04 15 52.870918 +27 43 16.40805
 2019-Jan-22 08:30  m  04 15 52.919134 +27 43 16.35881
 2019-Jan-22 08:31  m  04 15 52.967355 +27 43 16.30950
 2019-Jan-22 08:32  m  04 15 53.015584 +27 43 16.26014
 2019-Jan-22 08:33  m  04 15 53.063819 +27 43 16.21070
 2019-Jan-22 08:34  m  04 15 53.112060 +27 43 16.16121
 2019-Jan-22 08:35  m  04 15 53.160308 +27 43 16.11165
 2019-Jan-22 08:36  m  04 15 53.208563 +27 43 16.06203
 2019-Jan-22 08:37  m  04 15 53.256824 +27 43 16.01235
 2019-Jan-22 08:38  m  04 15 53.305093 +27 43 15.96260
 2019-Jan-22 08:39  m  04 15 53.353367 +27 43 15.91280
 2019-Jan-22 08:40  m  04 15 53.401649 +27 43 15.86293
 2019-Jan-22 08:41  m  04 15 53.449938 +27 43 15.81300
 2019-Jan-22 08:42  m  04 15 53.498233 +27 43 15.76300
 2019-Jan-22 08:43  m  04 15 53.546536 +27 43 15.71295
 2019-Jan-22 08:44  m  04 15 53.594846 +27 43 15.66283
 2019-Jan-22 08:45  m  04 15 53.643162 +27 43 15.61265
 2019-Jan-22 08:46  m  04 15 53.691486 +27 43 15.56242
 2019-Jan-22 08:47  m  04 15 53.739817 +27 43 15.51212
 2019-Jan-22 08:48  m  04 15 53.788155 +27 43 15.46176
 2019-Jan-22 08:49  m  04 15 53.836500 +27 43 15.41134
 2019-Jan-22 08:50  m  04 15 53.884853 +27 43 15.36086
 2019-Jan-22 08:51  m  04 15 53.933213 +27 43 15.31032
 2019-Jan-22 08:52  m  04 15 53.981580 +27 43 15.25972
 2019-Jan-22 08:53  m  04 15 54.029954 +27 43 15.20906
 2019-Jan-22 08:54  m  04 15 54.078337 +27 43 15.15834
 2019-Jan-22 08:55  m  04 15 54.126726 +27 43 15.10756
 2019-Jan-22 08:56  m  04 15 54.175123 +27 43 15.05672
 2019-Jan-22 08:57  m  04 15 54.223528 +27 43 15.00582
 2019-Jan-22 08:58  m  04 15 54.271940 +27 43 14.95487
 2019-Jan-22 08:59  m  04 15 54.320360 +27 43 14.90385
 2019-Jan-22 09:00  m  04 15 54.368788 +27 43 14.85278
 2019-Jan-22 09:01  m  04 15 54.417224 +27 43 14.80165
 2019-Jan-22 09:02  m  04 15 54.465667 +27 43 14.75046
 2019-Jan-22 09:03  m  04 15 54.514118 +27 43 14.69922
 2019-Jan-22 09:04  m  04 15 54.562577 +27 43 14.64791
 2019-Jan-22 09:05  m  04 15 54.611044 +27 43 14.59655
 2019-Jan-22 09:06  m  04 15 54.659519 +27 43 14.54513
 2019-Jan-22 09:07  m  04 15 54.708002 +27 43 14.49366
 2019-Jan-22 09:08  m  04 15 54.756493 +27 43 14.44212
 2019-Jan-22 09:09  m  04 15 54.804992 +27 43 14.39054
 2019-Jan-22 09:10  m  04 15 54.853499 +27 43 14.33889
 2019-Jan-22 09:11  m  04 15 54.902014 +27 43 14.28719
 2019-Jan-22 09:12  m  04 15 54.950538 +27 43 14.23543
 2019-Jan-22 09:13  m  04 15 54.999070 +27 43 14.18362
 2019-Jan-22 09:14  m  04 15 55.047610 +27 43 14.13175
 2019-Jan-22 09:15  m  04 15 55.096158 +27 43 14.07983
 2019-Jan-22 09:16  m  04 15 55.144715 +27 43 14.02785
 2019-Jan-22 09:17  m  04 15 55.193280 +27 43 13.97582
 2019-Jan-22 09:18  m  04 15 55.241854 +27 43 13.92373
 2019-Jan-22 09:19  m  04 15 55.290436 +27 43 13.87159
 2019-Jan-22 09:20  m  04 15 55.339026 +27 43 13.81939
 2019-Jan-22 09:21  m  04 15 55.387626 +27 43 13.76714
 2019-Jan-22 09:22  m  04 15 55.436233 +27 43 13.71484
 2019-Jan-22 09:23  m  04 15 55.484850 +27 43 13.66248
 2019-Jan-22 09:24  m  04 15 55.533475 +27 43 13.61007
 2019-Jan-22 09:25  m  04 15 55.582109 +27 43 13.55761
 2019-Jan-22 09:26  m  04 15 55.630752 +27 43 13.50509
 2019-Jan-22 09:27  m  04 15 55.679403 +27 43 13.45253
 2019-Jan-22 09:28  m  04 15 55.728063 +27 43 13.39990
 2019-Jan-22 09:29  m  04 15 55.776733 +27 43 13.34723
 2019-Jan-22 09:30  m  04 15 55.825411 +27 43 13.29451
 2019-Jan-22 09:31  m  04 15 55.874098 +27 43 13.24173
 2019-Jan-22 09:32  m  04 15 55.922794 +27 43 13.18890
 2019-Jan-22 09:33  m  04 15 55.971499 +27 43 13.13602
 2019-Jan-22 09:34  m  04 15 56.020213 +27 43 13.08309
 2019-Jan-22 09:35  m  04 15 56.068936 +27 43 13.03011
 2019-Jan-22 09:36  m  04 15 56.117669 +27 43 12.97708
 2019-Jan-22 09:37  m  04 15 56.166410 +27 43 12.92400
 2019-Jan-22 09:38  m  04 15 56.215161 +27 43 12.87086
 2019-Jan-22 09:39  m  04 15 56.263921 +27 43 12.81768
 2019-Jan-22 09:40  m  04 15 56.312691 +27 43 12.76445
 2019-Jan-22 09:41  m  04 15 56.361469 +27 43 12.71117
 2019-Jan-22 09:42  m  04 15 56.410257 +27 43 12.65784
 2019-Jan-22 09:43  m  04 15 56.459055 +27 43 12.60446
 2019-Jan-22 09:44  m  04 15 56.507862 +27 43 12.55104
 2019-Jan-22 09:45  m  04 15 56.556678 +27 43 12.49756
 2019-Jan-22 09:46  m  04 15 56.605504 +27 43 12.44404
 2019-Jan-22 09:47  m  04 15 56.654339 +27 43 12.39047
 2019-Jan-22 09:48  m  04 15 56.703184 +27 43 12.33685
 2019-Jan-22 09:49  m  04 15 56.752039 +27 43 12.28318
 2019-Jan-22 09:50  m  04 15 56.800903 +27 43 12.22947
 2019-Jan-22 09:51  m  04 15 56.849777 +27 43 12.17571
 2019-Jan-22 09:52  m  04 15 56.898660 +27 43 12.12190
 2019-Jan-22 09:53  m  04 15 56.947554 +27 43 12.06805
 2019-Jan-22 09:54  m  04 15 56.996457 +27 43 12.01415
 2019-Jan-22 09:55  m  04 15 57.045370 +27 43 11.96021
 2019-Jan-22 09:56  m  04 15 57.094293 +27 43 11.90622
 2019-Jan-22 09:57  m  04 15 57.143225 +27 43 11.85218
 2019-Jan-22 09:58  m  04 15 57.192168 +27 43 11.79810
 2019-Jan-22 09:59  m  04 15 57.241120 +27 43 11.74398
 2019-Jan-22 10:00  m  04 15 57.290083 +27 43 11.68981
 2019-Jan-22 10:01  m  04 15 57.339055 +27 43 11.63559
 2019-Jan-22 10:02  m  04 15 57.388038 +27 43 11.58133
 2019-Jan-22 10:03  m  04 15 57.437031 +27 43 11.52703
 2019-Jan-22 10:04  m  04 15 57.486033 +27 43 11.47269
 2019-Jan-22 10:05  m  04 15 57.535046 +27 43 11.41830
 2019-Jan-22 10:06  m  04 15 57.584069 +27 43 11.36387
 2019-Jan-22 10:07  m  04 15 57.633102 +27 43 11.30939
 2019-Jan-22 10:08  m  04 15 57.682146 +27 43 11.25488
 2019-Jan-22 10:09  m  04 15 57.731200 +27 43 11.20032
 2019-Jan-22 10:10  m  04 15 57.780264 +27 43 11.14572
 2019-Jan-22 10:11  m  04 15 57.829338 +27 43 11.09107
 2019-Jan-22 10:12  m  04 15 57.878423 +27 43 11.03639
 2019-Jan-22 10:13  m  04 15 57.927518 +27 43 10.98167
 2019-Jan-22 10:14  m  04 15 57.976624 +27 43 10.92690
 2019-Jan-22 10:15  m  04 15 58.025740 +27 43 10.87209
 2019-Jan-22 10:16  m  04 15 58.074866 +27 43 10.81725
 2019-Jan-22 10:17  m  04 15 58.124003 +27 43 10.76236
 2019-Jan-22 10:18  m  04 15 58.173151 +27 43 10.70744
 2019-Jan-22 10:19  m  04 15 58.222309 +27 43 10.65247
 2019-Jan-22 10:20  m  04 15 58.271478 +27 43 10.59747
 2019-Jan-22 10:21  m  04 15 58.320657 +27 43 10.54242
 2019-Jan-22 10:22  m  04 15 58.369847 +27 43 10.48734
 2019-Jan-22 10:23  m  04 15 58.419047 +27 43 10.43222
 2019-Jan-22 10:24  m  04 15 58.468259 +27 43 10.37706
 2019-Jan-22 10:25  m  04 15 58.517481 +27 43 10.32186
